#aV2014  6 14  0  0  0.00000000     288 DD+AD WGS84 FIT  NGA
## 1796 518400.00000000   300.00000000 56822 0.0000000000000
+   31     1  2  3  4  5  6  7  8 10 11 12 13 14 15 16 17 18
+         19 20 21 22 23 24 25 26 27 28 29 30 31 32  0  0  0
+          0  0  0  0  0  0  0  0  0  0  0  0  0  0  0  0  0
+          0  0  0  0  0  0  0  0  0  0  0  0  0  0  0  0  0
+          0  0  0  0  0  0  0  0  0  0  0  0  0  0  0  0  0
++         2  2  2  2  2  2  2  2  2  2  2  2  2  2  2  2  2
++         2  2  2  2  2  2  2  2  2  2  2  2  2  2  0  0  0
++         0  0  0  0  0  0  0  0  0  0  0  0  0  0  0  0  0
++         0  0  0  0  0  0  0  0  0  0  0  0  0  0  0  0  0
++         0  0  0  0  0  0  0  0  0  0  0  0  0  0  0  0  0
%c cc cc ccc ccc cccc cccc cccc cccc ccccc ccccc ccccc ccccc
%c cc cc ccc ccc cccc cccc cccc cccc ccccc ccccc ccccc ccccc
%f  0.0000000  0.000000000  0.00000000000  0.000000000000000
%f  0.0000000  0.000000000  0.00000000000  0.000000000000000
%i    0    0    0    0      0      0      0      0         0
%i    0    0    0    0      0      0      0      0         0
/*      NGA, ST. LOUIS,MO.                                  
/*   EPHEMERIS COMPUTED FROM  1 DAYS OF DATA                
/*   EPOCHA SMOOTHER                                       
/* CCCCCCCCCCCCCCCCCCCCCCCCCCCCCCCCCCCCCCCCCCCCCCCCCCCCCCCCC
*  2014  6 14  7 10  0.00000000
P  1 -11182.406269  21663.538272 -10395.137837     15.216000                    
V  1 -11117.832138   7577.063965  27973.580630      0.010136                    
P  2  21126.454127 -11222.568028 -10698.880863    501.018213                    
V  2  -7151.362209  12797.010029 -27293.242198      0.021706                    
P  3 -10541.121048  12661.091210  20255.438553    377.741607                    
V  3 -12199.663778 -24211.705882   8701.513850      0.048303                    
P  4  18224.715165   1769.665542 -19603.441360      7.243584                    
V  4 -15885.717330  18407.020449 -13053.321353      0.001767                    
P  5  22856.766992  -3933.671864  13055.618506   -365.858770                    
V  5  15493.088209   6470.143382 -24941.531206      0.027967                    
P  6  18778.554637   -493.192986 -18777.949923      7.150630                    
V  6 -15573.193378  18101.518060 -16066.954972     -0.018282                    
P  7   1587.435883  17418.793862  19952.524326    357.451581                    
V  7 -18894.380812  16790.371348 -13535.208249      0.042432                    
P  8   8588.120324  11683.970818  22391.640851     14.143211                    
V  8 -22066.886523  17200.959492  -1109.786333      0.002190                    
P 10  25207.593583   8789.171784  -2622.807295   -129.664000                    
V 10  -3576.734270   2151.753241 -30821.674204     -0.015190                    
P 11 -11402.319814  23865.405898   -267.375218   -497.158463                    
V 11  -4558.736391  -2461.185521  30246.715189     -0.031193                    
P 12   7191.573087 -13032.424386 -22050.689819    211.442009                    
V 12  26509.303107   8279.238826   3978.273803      0.024942                    
P 13   3972.753939  26162.084522   -607.177032    -10.302907                    
V 13  -2489.623644   -207.481334 -32229.841103     -0.038897                    
P 14 -13749.449093 -17193.695635 -14745.356776    163.765762                    
V 14  -1958.933517 -19020.605199  23500.639106     -0.035040                    
P 15   6835.512433 -19188.693280  16835.000984   -185.200364                    
V 15   8896.699897  19904.141074  19302.630229     -0.021829                    
P 16 -22928.509579   2015.258946  13513.442428   -213.217431                    
V 16 -15853.280754  -6445.147955 -25482.494691      0.020540                    
P 17  14363.897681  16582.178497 -14871.428234   -101.171987                    
V 17   2632.421547  19137.999723  23253.527316     -0.029397                    
P 18 -13626.372303 -16252.570621  16640.949782    325.338208                    
V 18  20195.008979   2748.283576  19436.922113      0.023650                    
P 19  -9733.548423  16436.485063  18109.820278   -462.600511                    
V 19  -5904.212351 -22758.545827  17786.429525     -0.021324                    
P 20  -3929.695869  15573.295048 -21339.103650    199.828271                    
V 20 -26302.125060  -5174.630284   1143.184691      0.040132                    
P 21  -6653.816668 -15583.930964  21014.435452   -366.900240                    
V 21  18398.754714 -17597.337491  -7909.611568     -0.022000                    
P 22 -23570.246949 -10802.331724   6365.311475    242.070669                    
V 22   8467.081043  -1654.453074  29381.160471      0.030623                    
P 23  -1891.367142  23714.165722 -11246.887373    -28.572175                    
V 23  -6698.467735 -13333.532978 -27145.740182     -0.030495                    
P 24  14374.820523 -21393.021231  -6231.456436    -30.115998                    
V 24   7565.248851  -3708.540276  30385.722723     -0.007243                    
P 25  -6623.381005 -15874.046081 -20350.598022     24.812755                    
V 25  25006.328606   5497.223759 -12341.702898      0.001785                    
P 26  13191.372213  -7520.774295  21101.586868     47.198451                    
V 26   5601.390172  27804.889227   6496.224986     -0.121940                    
P 27 -14246.346670   5208.892543  21792.518820    -10.216666                    
V 27  -7670.846363 -26598.813625   1403.514319      0.028881                    
P 28  20602.531398  13839.218308  10240.706780    362.175719                    
V 28 -11926.620431  -2281.872418  28659.602431      0.028656                    
P 29  -5014.367809 -26080.844558  -1196.873451    539.595991                    
V 29   2767.031829    977.619976 -31878.361513      0.026022                    
P 30  10696.831467  10900.056285  21721.610313    -26.457299                    
V 30 -20731.148592  18236.583457   1022.402813     -0.067013                    
P 31 -19453.739436   1936.527977 -17969.872411    334.021482                    
V 31  15726.253166 -16778.303915 -18375.709795     -0.001439                    
P 32 -16682.004441   8369.282838 -18632.728353   -407.275208                    
V 32 -22035.178799  -9721.002813  15853.958363      0.082736                    
EOF
